{"type": "FeatureCollection", "features": [{"type": "Feature", "geometry": {"type": "Point", "coordinates": [120.4323273, 23.47294617]}, "properties": {"category": "iTaiwan", "name": "嘉義市政府警察局第一分局竹園派出所", "address": "600嘉義市西區博愛路二段455號", "agency": "嘉義市政府警察局"}}, {"type": "Feature", "geometry": {"type": "Point", "coordinates": [120.4520645, 23.48283005]}, "properties": {"category": "iTaiwan", "name": "嘉義市政府警察局第二分局北門派出所", "address": "600嘉義市東區民權路268號", "agency": "嘉義市政府警察局"}}, {"type": "Feature", "geometry": {"type": "Point", "coordinates": [120.4553757, 23.47664452]}, "properties": {"category": "iTaiwan", "name": "嘉義市政府警察局第二分局南門派出所", "address": "600嘉義市東區民族路230號", "agency": "嘉義市政府警察局"}}, {"type": "Feature", "geometry": {"type": "Point", "coordinates": [120.4431839, 23.47917747]}, "properties": {"category": "iTaiwan", "name": "嘉義市政府警察局第一分局長榮派出所", "address": "600嘉義市西區中山路567號", "agency": "嘉義市政府警察局"}}, {"type": "Feature", "geometry": {"type": "Point", "coordinates": [120.4542389, 23.47204208]}, "properties": {"category": "iTaiwan", "name": "嘉義市政府警察局第二分局新南派出所", "address": "600嘉義市東區吳鳳南路75號", "agency": "嘉義市政府警察局"}}, {"type": "Feature", "geometry": {"type": "Point", "coordinates": [120.4422684, 23.48508263]}, "properties": {"category": "iTaiwan", "name": "嘉義市政府警察局第一分局北興派出所", "address": "600嘉義市西區博愛路一段506號", "agency": "嘉義市政府警察局"}}, {"type": "Feature", "geometry": {"type": "Point", "coordinates": [120.463219, 23.482711]}, "properties": {"category": "iTaiwan", "name": "嘉義市政府警察局第二分局公園派出所", "address": "600嘉義市東區中山路2號", "agency": "嘉義市政府警察局"}}, {"type": "Feature", "geometry": {"type": "Point", "coordinates": [120.4504471, 23.49850464]}, "properties": {"category": "iTaiwan", "name": "嘉義市政府警察局第二分局後湖派出所", "address": "600嘉義市東區忠孝路537號", "agency": "嘉義市政府警察局"}}, {"type": "Feature", "geometry": {"type": "Point", "coordinates": [120.480751, 23.48258972]}, "properties": {"category": "iTaiwan", "name": "嘉義市政府警察局第二分局長竹派出所", "address": "600嘉義市東區民權東路34號", "agency": "嘉義市政府警察局"}}, {"type": "Feature", "geometry": {"type": "Point", "coordinates": [120.4378052, 23.46189308]}, "properties": {"category": "iTaiwan", "name": "嘉義市政府警察局第一分局八掌派出所", "address": "600嘉義市西區世賢路三段451號", "agency": "嘉義市政府警察局"}}, {"type": "Feature", "geometry": {"type": "Point", "coordinates": [120.453725, 23.481224]}, "properties": {"category": "iTaiwan", "name": "ITWI000001嘉義市政府1樓", "address": "嘉義市東區中山路199號(1樓)", "agency": "嘉義市政府"}}, {"type": "Feature", "geometry": {"type": "Point", "coordinates": [120.452583, 23.487295]}, "properties": {"category": "iTaiwan", "name": "ITWI000002嘉義市政府文化局圖書館", "address": "嘉義市東區忠孝路275號(1F參考室及嘉義市政府文化局2F普通閱覽室)", "agency": "嘉義市政府"}}, {"type": "Feature", "geometry": {"type": "Point", "coordinates": [120.428536, 23.48986]}, "properties": {"category": "iTaiwan", "name": "ITWI000003嘉義市世賢圖書館", "address": "嘉義市西區世賢路一段685號(2樓電梯口上方天花板)", "agency": "嘉義市政府"}}, {"type": "Feature", "geometry": {"type": "Point", "coordinates": [120.446969, 23.476653]}, "properties": {"category": "iTaiwan", "name": "ITWI000004嘉義市黃賓圖書館", "address": "嘉義市西區延平街328號(1樓服務台旁配線箱上方天花板)", "agency": "嘉義市政府"}}, {"type": "Feature", "geometry": {"type": "Point", "coordinates": [120.451758, 23.487233]}, "properties": {"category": "iTaiwan", "name": "ITWI000005嘉義市市立博物館", "address": "嘉義市忠孝路275-1號(1、2、3F大廳)", "agency": "嘉義市政府"}}, {"type": "Feature", "geometry": {"type": "Point", "coordinates": [120.469028, 23.481367]}, "properties": {"category": "iTaiwan", "name": "ITWI000007嘉義公園(射日塔)", "address": "嘉義市公園街46號", "agency": "嘉義市政府"}}, {"type": "Feature", "geometry": {"type": "Point", "coordinates": [120.4484, 23.481]}, "properties": {"category": "iTaiwan", "name": "ITWI000008嘉義市中正公園1", "address": "嘉義市國華街、北榮街交叉處", "agency": "嘉義市政府"}}, {"type": "Feature", "geometry": {"type": "Point", "coordinates": [120.4503, 23.475]}, "properties": {"category": "iTaiwan", "name": "ITWI000009嘉義市文化公園1", "address": "嘉義市文化路與康樂街口(諸羅印象水泥牆體上)", "agency": "嘉義市政府"}}, {"type": "Feature", "geometry": {"type": "Point", "coordinates": [120.424819, 23.493477]}, "properties": {"category": "iTaiwan", "name": "ITWI000010嘉義市北社尾公園", "address": "嘉義市西區北社尾路203巷尾", "agency": "嘉義市政府"}}, {"type": "Feature", "geometry": {"type": "Point", "coordinates": [120.435433, 23.469199]}, "properties": {"category": "iTaiwan", "name": "ITWI000011嘉義市興嘉公園", "address": "嘉義市南京路與上海路交叉口(舞台右側柱上)", "agency": "嘉義市政府"}}, {"type": "Feature", "geometry": {"type": "Point", "coordinates": [120.461963, 23.471441]}, "properties": {"category": "iTaiwan", "name": "ITWI000015嘉義市田徑場", "address": "嘉義市東區體育路2號(田徑場側辦公室外)", "agency": "嘉義市政府"}}, {"type": "Feature", "geometry": {"type": "Point", "coordinates": [120.462448, 23.473354]}, "properties": {"category": "iTaiwan", "name": "ITWI000016嘉義市東區體育館", "address": "嘉義市彌陀路381號(二樓看台A梯)", "agency": "嘉義市政府"}}, {"type": "Feature", "geometry": {"type": "Point", "coordinates": [120.422117, 23.477011]}, "properties": {"category": "iTaiwan", "name": "ITWI000017嘉義市港坪運動公園", "address": "嘉義市大同路320號(電信室窗邊)", "agency": "嘉義市政府"}}, {"type": "Feature", "geometry": {"type": "Point", "coordinates": [120.462985, 23.457774]}, "properties": {"category": "iTaiwan", "name": "ITWI000018嘉義市河濱運動公園", "address": "嘉義市興仁街50號(電信室門口)", "agency": "嘉義市政府"}}, {"type": "Feature", "geometry": {"type": "Point", "coordinates": [120.463468, 23.482827]}, "properties": {"category": "iTaiwan", "name": "ITWI000019嘉義公園(旅遊資訊站)", "address": "位於嘉義公園中山路與啟明路交叉口", "agency": "嘉義市政府"}}, {"type": "Feature", "geometry": {"type": "Point", "coordinates": [120.44015, 23.47981]}, "properties": {"category": "iTaiwan", "name": "ITWI000020嘉義市交通轉運中心", "address": "嘉義市西區中興路1號(國光客運櫃台上方)", "agency": "嘉義市政府"}}, {"type": "Feature", "geometry": {"type": "Point", "coordinates": [120.454775, 23.481809]}, "properties": {"category": "iTaiwan", "name": "ITWI000021嘉義市政府稅務局", "address": "嘉義市中山路154號(1樓大門入口櫃台上方天花板)", "agency": "嘉義市政府"}}, {"type": "Feature", "geometry": {"type": "Point", "coordinates": [120.467299, 23.472314]}, "properties": {"category": "iTaiwan", "name": "ITWI000022嘉義市政府消防局", "address": "嘉義市立學街16號(大廳天花板)", "agency": "嘉義市政府"}}, {"type": "Feature", "geometry": {"type": "Point", "coordinates": [120.455193, 23.481727]}, "properties": {"category": "iTaiwan", "name": "ITWI000023嘉義市政府警察局", "address": "嘉義市中山路195號(服務台)", "agency": "嘉義市政府"}}, {"type": "Feature", "geometry": {"type": "Point", "coordinates": [120.455796, 23.463893]}, "properties": {"category": "iTaiwan", "name": "ITWI000024嘉義市政府警察局第二分局", "address": "嘉義市東區吳鳳南路367號(報案席上方天花板)", "agency": "嘉義市政府"}}, {"type": "Feature", "geometry": {"type": "Point", "coordinates": [120.431589, 23.479446]}, "properties": {"category": "iTaiwan", "name": "ITWI000025嘉義市政府警察局第一分局", "address": "嘉義市西區北港路280號(交通裁決室外)", "agency": "嘉義市政府"}}, {"type": "Feature", "geometry": {"type": "Point", "coordinates": [120.453449, 23.478658]}, "properties": {"category": "iTaiwan", "name": "ITWI000026嘉義市政府環境保護局", "address": "嘉義市吳鳳北路184號5樓(服務台旁天花板)", "agency": "嘉義市政府"}}, {"type": "Feature", "geometry": {"type": "Point", "coordinates": [120.453449, 23.478677]}, "properties": {"category": "iTaiwan", "name": "ITWI000027嘉義市東區區公所", "address": "嘉義市東區吳鳳北路184號(第二調解室門前天花板)", "agency": "嘉義市政府"}}, {"type": "Feature", "geometry": {"type": "Point", "coordinates": [120.435551, 23.464375]}, "properties": {"category": "iTaiwan", "name": "ITWI000028嘉義市西區區公所", "address": "嘉義市錦州二街28號三樓(兵役科第14號窗口上天花板)", "agency": "嘉義市政府"}}, {"type": "Feature", "geometry": {"type": "Point", "coordinates": [120.448176, 23.479215]}, "properties": {"category": "iTaiwan", "name": "ITWI000029嘉義市地政事務所", "address": "嘉義市西區國華街245號 8樓(56號窗口上方)", "agency": "嘉義市政府"}}, {"type": "Feature", "geometry": {"type": "Point", "coordinates": [120.45346, 23.478677]}, "properties": {"category": "iTaiwan", "name": "ITWI000030嘉義市東區戶政事務所", "address": "嘉義市東區吳鳳北路184號4樓(愛心服務台上方)", "agency": "嘉義市政府"}}, {"type": "Feature", "geometry": {"type": "Point", "coordinates": [120.435551, 23.464375]}, "properties": {"category": "iTaiwan", "name": "ITWI000031嘉義市西區戶政事務所", "address": "嘉義市西區錦州二街28號2樓 (由樓梯間總箱佈線經太平門天花板到10號櫃台)", "agency": "嘉義市政府"}}, {"type": "Feature", "geometry": {"type": "Point", "coordinates": [120.452791, 23.416469]}, "properties": {"category": "iTaiwan", "name": "ITWI000034嘉義市殯葬管理所", "address": "嘉義縣水上鄉牛稠埔100之13號(新火化場家屬休息室服務台)", "agency": "嘉義市政府"}}, {"type": "Feature", "geometry": {"type": "Point", "coordinates": [120.428073, 23.472247]}, "properties": {"category": "iTaiwan", "name": "ITWI000036嘉義市身心障礙綜合園區(再耕園)", "address": "嘉義市玉康路160號(1樓大廳天花板)", "agency": "嘉義市政府"}}, {"type": "Feature", "geometry": {"type": "Point", "coordinates": [120.463677, 23.476045]}, "properties": {"category": "iTaiwan", "name": "ITWI000037嘉義市長青綜合服務中心", "address": "嘉義市公義路一號(長青園1樓及2樓)", "agency": "嘉義市政府"}}, {"type": "Feature", "geometry": {"type": "Point", "coordinates": [120.460575, 23.47067]}, "properties": {"category": "iTaiwan", "name": "ITWI000038嘉義市兒童福利服務中心", "address": "嘉義市東區興業東路555號(服務台後方架上)", "agency": "嘉義市政府"}}, {"type": "Feature", "geometry": {"type": "Point", "coordinates": [120.433114, 23.484226]}, "properties": {"category": "iTaiwan", "name": "ITWI000039嘉義市婦女福利服務中心", "address": "嘉義市德安路6號", "agency": "嘉義市政府"}}, {"type": "Feature", "geometry": {"type": "Point", "coordinates": [120.46143, 23.474671]}, "properties": {"category": "iTaiwan", "name": "ITWI000040嘉義市青少年福利服務中心", "address": "嘉義市東區體育路10號", "agency": "嘉義市政府"}}, {"type": "Feature", "geometry": {"type": "Point", "coordinates": [120.466443, 23.489863]}, "properties": {"category": "iTaiwan", "name": "ITWI000048嘉義市林森國民小學", "address": "嘉義市東區林森東路346號(同馨樓朝西側操場方向)", "agency": "嘉義市政府"}}, {"type": "Feature", "geometry": {"type": "Point", "coordinates": [120.464808, 23.487003]}, "properties": {"category": "iTaiwan", "name": "ITWI000058嘉義市立嘉義國民中學", "address": "嘉義市東區圓福街86號(傳達室)", "agency": "嘉義市政府"}}, {"type": "Feature", "geometry": {"type": "Point", "coordinates": [120.455093, 23.490494]}, "properties": {"category": "iTaiwan", "name": "ITWI000072嘉義市北興國民中學", "address": "600嘉義市東區博東路262號(傳達室)", "agency": "嘉義市政府"}}, {"type": "Feature", "geometry": {"type": "Point", "coordinates": [120.448177, 23.47922]}, "properties": {"category": "iTaiwan", "name": "ITWI000074嘉義市西市場1樓", "address": "600嘉義市西區國華街245號(忠義街、國華街之間)", "agency": "嘉義市政府"}}, {"type": "Feature", "geometry": {"type": "Point", "coordinates": [120.449886, 23.481521]}, "properties": {"category": "iTaiwan", "name": "ITWI000075嘉義市中央廣場公園", "address": "600嘉義市民權路、興中街口建築物牆體上", "agency": "嘉義市政府"}}, {"type": "Feature", "geometry": {"type": "Point", "coordinates": [120.453725, 23.481224]}, "properties": {"category": "iTaiwan", "name": "ITWI000078嘉義市政府六樓", "address": "嘉義市中山路199號/六樓會議室", "agency": "嘉義市政府"}}, {"type": "Feature", "geometry": {"type": "Point", "coordinates": [120.453725, 23.481224]}, "properties": {"category": "iTaiwan", "name": "ITWI000079嘉義市政府八樓會議室", "address": "嘉義市中山路199號/八樓會議室", "agency": "嘉義市政府"}}, {"type": "Feature", "geometry": {"type": "Point", "coordinates": [120.451536, 23.474369]}, "properties": {"category": "iTaiwan", "name": "ITWI000080嘉義市蘇周連宗祠", "address": "600嘉義市垂楊路326號/入口屋簷下", "agency": "嘉義市政府"}}, {"type": "Feature", "geometry": {"type": "Point", "coordinates": [120.417703, 23.463728]}, "properties": {"category": "iTaiwan", "name": "ITWI000089嘉義市劉厝公園", "address": "600嘉義市劉厝路131號(社區活動中心旁)", "agency": "嘉義市政府"}}, {"type": "Feature", "geometry": {"type": "Point", "coordinates": [120.452594, 23.48732]}, "properties": {"category": "iTaiwan", "name": "ITWI000092嘉義市政府文化局展覽室(3F)", "address": "600嘉義市東區忠孝路275號3樓(展示大廳)", "agency": "嘉義市政府"}}, {"type": "Feature", "geometry": {"type": "Point", "coordinates": [120.45861, 23.48648]}, "properties": {"category": "iTaiwan", "name": "ITWI000094嘉義舊監獄(門樓)", "address": "600嘉義市東區維新路140號(門樓)", "agency": "嘉義市政府"}}, {"type": "Feature", "geometry": {"type": "Point", "coordinates": [120.448177, 23.47922]}, "properties": {"category": "iTaiwan", "name": "ITWI000097嘉義市西市場7樓", "address": "600嘉義市西區國華街245號7樓(市府電腦教室)", "agency": "嘉義市政府"}}, {"type": "Feature", "geometry": {"type": "Point", "coordinates": [120.454232, 23.486171]}, "properties": {"category": "iTaiwan", "name": "ITWI000100嘉義市檜意森活村(遊客服務中心旁)", "address": "600嘉義市東區林森東路1號", "agency": "嘉義市政府"}}, {"type": "Feature", "geometry": {"type": "Point", "coordinates": [120.454233, 23.486171]}, "properties": {"category": "iTaiwan", "name": "ITWI000101嘉義市檜意森活村(水池區)", "address": "600嘉義市東區林森東路1號", "agency": "嘉義市政府"}}, {"type": "Feature", "geometry": {"type": "Point", "coordinates": [120.445767, 23.467676]}, "properties": {"category": "iTaiwan", "name": "ITWI000102嘉義市民生公園-1", "address": "600嘉義市民生南路222號對面電信箱", "agency": "嘉義市政府"}}, {"type": "Feature", "geometry": {"type": "Point", "coordinates": [120.446411, 23.468436]}, "properties": {"category": "iTaiwan", "name": "ITWI000103嘉義市民生公園-2", "address": "600嘉義市民生南路與興業西路口公話亭", "agency": "嘉義市政府"}}, {"type": "Feature", "geometry": {"type": "Point", "coordinates": [120.457238, 23.466047]}, "properties": {"category": "iTaiwan", "name": "ITWI000104嘉義市南興公園", "address": "600嘉義市南興公園(角仔寮4號電信桿)", "agency": "嘉義市政府"}}, {"type": "Feature", "geometry": {"type": "Point", "coordinates": [120.450023, 23.479]}, "properties": {"category": "iTaiwan", "name": "ITWI000105嘉義市文化路商圈2", "address": "600嘉義市中正路410號前(路口立桿)", "agency": "嘉義市政府"}}, {"type": "Feature", "geometry": {"type": "Point", "coordinates": [120.449957, 23.477323]}, "properties": {"category": "iTaiwan", "name": "ITWI000106嘉義市文化路商圈3", "address": "600嘉義市文化路114號前(路口立桿)", "agency": "嘉義市政府"}}, {"type": "Feature", "geometry": {"type": "Point", "coordinates": [120.443019, 23.479227]}, "properties": {"category": "iTaiwan", "name": "ITWI000108嘉義市中山路商圈(西門街口)", "address": "600嘉義市中山路567號(長榮派出所)前公話亭", "agency": "嘉義市政府"}}, {"type": "Feature", "geometry": {"type": "Point", "coordinates": [120.445026, 23.479322]}, "properties": {"category": "iTaiwan", "name": "ITWI000109嘉義市中山路商圈(嘉義客運總站前)", "address": "600嘉義市中山路497號前電信箱(嘉義客運總站附近)", "agency": "嘉義市政府"}}, {"type": "Feature", "geometry": {"type": "Point", "coordinates": [120.446229, 23.479607]}, "properties": {"category": "iTaiwan", "name": "ITWI000110嘉義市中山路商圈(民生路口)", "address": "600嘉義市中山路443號前路口監控桿", "agency": "嘉義市政府"}}, {"type": "Feature", "geometry": {"type": "Point", "coordinates": [120.447091, 23.479636]}, "properties": {"category": "iTaiwan", "name": "ITWI000111嘉義市中山路商圈(忠義街口)", "address": "600嘉義市中山路411號前光化箱", "agency": "嘉義市政府"}}, {"type": "Feature", "geometry": {"type": "Point", "coordinates": [120.448652, 23.48004]}, "properties": {"category": "iTaiwan", "name": "ITWI000112嘉義市中山路商圈(國華街口)", "address": "600嘉義市中山路306 號(台灣銀行)前路口立桿", "agency": "嘉義市政府"}}, {"type": "Feature", "geometry": {"type": "Point", "coordinates": [120.44977, 23.479706]}, "properties": {"category": "iTaiwan", "name": "ITWI000113嘉義市中山路中央噴水池圓環-1", "address": "600嘉義市中山路309 號(土地銀行)旁公話亭", "agency": "嘉義市政府"}}, {"type": "Feature", "geometry": {"type": "Point", "coordinates": [120.449358, 23.48009]}, "properties": {"category": "iTaiwan", "name": "ITWI000114嘉義市中山路中央噴水池圓環-2", "address": "600嘉義市中山路294號(玉山證券)前公話亭", "agency": "嘉義市政府"}}, {"type": "Feature", "geometry": {"type": "Point", "coordinates": [120.451035, 23.480472]}, "properties": {"category": "iTaiwan", "name": "ITWI000115嘉義市中山路商圈(興中街口)", "address": "600嘉義市中山路263號前號誌燈桿", "agency": "嘉義市政府"}}, {"type": "Feature", "geometry": {"type": "Point", "coordinates": [120.457888, 23.482206]}, "properties": {"category": "iTaiwan", "name": "ITWI000116嘉義市中山路商圈(安和街口)", "address": "600嘉義市中山路96號(行政執行署嘉義分署)前號誌燈桿", "agency": "嘉義市政府"}}, {"type": "Feature", "geometry": {"type": "Point", "coordinates": [120.459988, 23.482359]}, "properties": {"category": "iTaiwan", "name": "ITWI000117嘉義市中山路商圈(民國路口)", "address": "600嘉義市中山路與民國路口公話亭", "agency": "嘉義市政府"}}, {"type": "Feature", "geometry": {"type": "Point", "coordinates": [120.456621, 23.483216]}, "properties": {"category": "iTaiwan", "name": "ITWI000118嘉義市九華山地藏庵", "address": "600嘉義市東區民權路255號(地藏庵斜對面菩提樓K書中心3F牆壁)", "agency": "嘉義市政府"}}, {"type": "Feature", "geometry": {"type": "Point", "coordinates": [120.46618, 23.484305]}, "properties": {"category": "iTaiwan", "name": "ITWI000119嘉義公園(民權路與五福街口)", "address": "600嘉義公園五福街側門立桿", "agency": "嘉義市政府"}}, {"type": "Feature", "geometry": {"type": "Point", "coordinates": [120.454038, 23.47841]}, "properties": {"category": "iTaiwan", "name": "ITWI000120嘉義市城隍廟", "address": "600嘉義市東區吳鳳北路168號(廟內香鋪店)", "agency": "嘉義市政府"}}, {"type": "Feature", "geometry": {"type": "Point", "coordinates": [120.450454, 23.48005]}, "properties": {"category": "iTaiwan", "name": "ITWI000121嘉義市中山路中央噴水池圓環-3", "address": "600嘉義市中山路289號前公話亭", "agency": "嘉義市政府"}}, {"type": "Feature", "geometry": {"type": "Point", "coordinates": [120.480195, 23.465502]}, "properties": {"category": "iTaiwan", "name": "ITWI000123嘉義市蘭潭月影潭心", "address": "600嘉義市鹿寮里紅毛埤187號之4", "agency": "嘉義市政府"}}, {"type": "Feature", "geometry": {"type": "Point", "coordinates": [120.44116, 23.472734]}, "properties": {"category": "iTaiwan", "name": "ITWI000126嘉義市垂楊路候車亭(遠東百貨前)", "address": "600嘉義市垂楊路537號(遠東百貨前公話亭)", "agency": "嘉義市政府"}}, {"type": "Feature", "geometry": {"type": "Point", "coordinates": [120.463326, 23.484077]}, "properties": {"category": "iTaiwan", "name": "ITWI000127嘉義公園(啟明路與民權路口)", "address": "600嘉義市啟明路與民權路口公話亭)", "agency": "嘉義市政府"}}, {"type": "Feature", "geometry": {"type": "Point", "coordinates": [120.452183, 23.485877]}, "properties": {"category": "iTaiwan", "name": "ITWI000128阿里山鐵路車庫園區(南側門)", "address": "600嘉義市東區林森西路2號(維修廠外面)", "agency": "嘉義市政府"}}, {"type": "Feature", "geometry": {"type": "Point", "coordinates": [120.448251, 23.486652]}, "properties": {"category": "iTaiwan", "name": "ITWI000129嘉義市森林之歌", "address": "600嘉義市文化路地下道旁", "agency": "嘉義市政府"}}, {"type": "Feature", "geometry": {"type": "Point", "coordinates": [120.453725, 23.481224]}, "properties": {"category": "iTaiwan", "name": "ITWI000130嘉義市政府九樓禮堂", "address": "嘉義市東區中山路199號9樓", "agency": "嘉義市政府"}}, {"type": "Feature", "geometry": {"type": "Point", "coordinates": [120.446969, 23.476633]}, "properties": {"category": "iTaiwan", "name": "ITWI000131嘉義市黃賓圖書館3樓", "address": "嘉義市東區延平街328號3樓(多功能教室旁機櫃)", "agency": "嘉義市政府"}}, {"type": "Feature", "geometry": {"type": "Point", "coordinates": [120.455204, 23.481717]}, "properties": {"category": "iTaiwan", "name": "ITWI000133嘉義市警察局禮堂(警察局5樓)", "address": "嘉義市東區中山路195號5樓", "agency": "嘉義市政府"}}, {"type": "Feature", "geometry": {"type": "Point", "coordinates": [120.452605, 23.48735]}, "properties": {"category": "iTaiwan", "name": "ITWI000134嘉義市政府文化局圖書館(兒童閱覽室)", "address": "嘉義市東區忠孝路275號", "agency": "嘉義市政府"}}, {"type": "Feature", "geometry": {"type": "Point", "coordinates": [120.428536, 23.48985]}, "properties": {"category": "iTaiwan", "name": "ITWI000136嘉義市世賢圖書館室內2樓", "address": "嘉義市西區世賢路一段685號", "agency": "嘉義市政府"}}, {"type": "Feature", "geometry": {"type": "Point", "coordinates": [120.429332, 23.493539]}, "properties": {"category": "iTaiwan", "name": "ITWI000138嘉義市北園國中", "address": "嘉義市西區雙園街280號", "agency": "嘉義市政府"}}, {"type": "Feature", "geometry": {"type": "Point", "coordinates": [120.44104, 23.47895]}, "properties": {"category": "iTaiwan", "name": "ITWI000139嘉義火車站前廣場", "address": "嘉義市西區中山路530號前", "agency": "嘉義市政府"}}, {"type": "Feature", "geometry": {"type": "Point", "coordinates": [120.449167, 23.481322]}, "properties": {"category": "iTaiwan", "name": "ITWI000140嘉義市文化路商圈1", "address": "嘉義市東區文化路179號對面(中央廣場電話亭)", "agency": "嘉義市政府"}}, {"type": "Feature", "geometry": {"type": "Point", "coordinates": [120.396827, 23.49054]}, "properties": {"category": "iTaiwan", "name": "ITWI000143嘉義市果菜市場(東)", "address": "嘉義市西區埤竹路50號56攤", "agency": "嘉義市政府"}}, {"type": "Feature", "geometry": {"type": "Point", "coordinates": [120.396827, 23.49054]}, "properties": {"category": "iTaiwan", "name": "ITWI000144嘉義市果菜市場(西)", "address": "嘉義市西區埤竹路50號15攤", "agency": "嘉義市政府"}}, {"type": "Feature", "geometry": {"type": "Point", "coordinates": [120.451859, 23.471244]}, "properties": {"category": "iTaiwan", "name": "ITWI000145嘉義市崇文公園", "address": "嘉義市西區永安街22號對面", "agency": "嘉義市政府"}}, {"type": "Feature", "geometry": {"type": "Point", "coordinates": [120.451, 23.4744]}, "properties": {"category": "iTaiwan", "name": "ITWI000146嘉義市文化公園2", "address": "嘉義市西區文化路1-5號對面(靠近垂楊路公廁)", "agency": "嘉義市政府"}}, {"type": "Feature", "geometry": {"type": "Point", "coordinates": [120.456398, 23.478715]}, "properties": {"category": "iTaiwan", "name": "ITWI000147嘉義市文昌公園", "address": "嘉義市東區文昌街96號對面", "agency": "嘉義市政府"}}, {"type": "Feature", "geometry": {"type": "Point", "coordinates": [120.455299, 23.469802]}, "properties": {"category": "iTaiwan", "name": "ITWI000148嘉義市南田公園", "address": "嘉義市東區興業東路265巷1號前", "agency": "嘉義市政府"}}, {"type": "Feature", "geometry": {"type": "Point", "coordinates": [120.44728, 23.48194]}, "properties": {"category": "iTaiwan", "name": "ITWI000150嘉義市中正公園2", "address": "中正公園公廁口(民權路與忠義街入口旁)", "agency": "嘉義市政府"}}, {"type": "Feature", "geometry": {"type": "Point", "coordinates": [120.45722, 23.485316]}, "properties": {"category": "iTaiwan", "name": "ITWI000151嘉義市長榮公園", "address": "嘉義市東區安和街210號前公話亭", "agency": "嘉義市政府"}}, {"type": "Feature", "geometry": {"type": "Point", "coordinates": [120.457357, 23.497463]}, "properties": {"category": "iTaiwan", "name": "ITWI000152嘉義市頂庄公園", "address": "嘉義市東區義教街613巷27號", "agency": "嘉義市政府"}}, {"type": "Feature", "geometry": {"type": "Point", "coordinates": [120.444187, 23.493873]}, "properties": {"category": "iTaiwan", "name": "ITWI000154嘉義市北香湖公園2", "address": "嘉義市西區文化路585號路口監控", "agency": "嘉義市政府"}}, {"type": "Feature", "geometry": {"type": "Point", "coordinates": [120.444553, 23.492187]}, "properties": {"category": "iTaiwan", "name": "ITWI000155嘉義市北香湖公園3", "address": "嘉義市西區友愛路1001號前安全島(友愛路口路口監控)", "agency": "嘉義市政府"}}, {"type": "Feature", "geometry": {"type": "Point", "coordinates": [120.432281, 23.477107]}, "properties": {"category": "iTaiwan", "name": "ITWI000156嘉義市友忠公園", "address": "嘉義市西區福嘉街60號前管理中心", "agency": "嘉義市政府"}}, {"type": "Feature", "geometry": {"type": "Point", "coordinates": [120.437357, 23.491005]}, "properties": {"category": "iTaiwan", "name": "ITWI000157嘉義市友愛綜合球場", "address": "嘉義市西區友愛路629號廁所旁", "agency": "嘉義市政府"}}, {"type": "Feature", "geometry": {"type": "Point", "coordinates": [120.434876, 23.46782]}, "properties": {"category": "iTaiwan", "name": "ITWI000159嘉義市興嘉公園", "address": "嘉義市西區興業西路439號前交接箱(靠興業西路側公話亭對面路側立桿)", "agency": "嘉義市政府"}}, {"type": "Feature", "geometry": {"type": "Point", "coordinates": [120.416295, 23.461593]}, "properties": {"category": "iTaiwan", "name": "ITWI000160嘉義市劉厝3號公園", "address": "嘉義市西區大聖路282號對面", "agency": "嘉義市政府"}}, {"type": "Feature", "geometry": {"type": "Point", "coordinates": [120.417009, 23.467299]}, "properties": {"category": "iTaiwan", "name": "ITWI000161嘉義市劉厝1號公園", "address": "嘉義市西區大利街160號對面", "agency": "嘉義市政府"}}, {"type": "Feature", "geometry": {"type": "Point", "coordinates": [120.429699, 23.479783]}, "properties": {"category": "iTaiwan", "name": "ITWI000162嘉義市農會(前候車亭)", "address": "嘉義市西區北港路251號旁", "agency": "嘉義市政府"}}, {"type": "Feature", "geometry": {"type": "Point", "coordinates": [120.429642, 23.458141]}, "properties": {"category": "iTaiwan", "name": "ITWI000163嘉義市嘉油鐵馬道(紅瓦厝站)", "address": "嘉義市西區重慶一街280號後", "agency": "嘉義市政府"}}, {"type": "Feature", "geometry": {"type": "Point", "coordinates": [120.44337, 23.459316]}, "properties": {"category": "iTaiwan", "name": "ITWI000164嘉義市嘉油鐵馬道(民生南路)", "address": "嘉義市西區民生南路530號後", "agency": "嘉義市政府"}}, {"type": "Feature", "geometry": {"type": "Point", "coordinates": [120.446924, 23.462076]}, "properties": {"category": "iTaiwan", "name": "ITWI000165嘉義市嘉油鐵馬道(世賢路四段)", "address": "嘉義市西區世賢路四段250號後", "agency": "嘉義市政府"}}, {"type": "Feature", "geometry": {"type": "Point", "coordinates": [120.422117, 23.47703]}, "properties": {"category": "iTaiwan", "name": "ITWI000166嘉義市港坪運動公園(市內場館1F)", "address": "嘉義市大同路320號1F", "agency": "嘉義市政府"}}, {"type": "Feature", "geometry": {"type": "Point", "coordinates": [120.422118, 23.47703]}, "properties": {"category": "iTaiwan", "name": "ITWI000167嘉義市港坪運動公園(市內場館2F)", "address": "嘉義市大同路320號2F觀眾席", "agency": "嘉義市政府"}}, {"type": "Feature", "geometry": {"type": "Point", "coordinates": [120.462639, 23.471484]}, "properties": {"category": "iTaiwan", "name": "ITWI000169嘉義市國民運動中心1樓(攀岩區)", "address": "嘉義市隬陀路327巷15號1樓", "agency": "嘉義市政府"}}, {"type": "Feature", "geometry": {"type": "Point", "coordinates": [120.46264, 23.471484]}, "properties": {"category": "iTaiwan", "name": "ITWI000170嘉義市國民運動中心4樓", "address": "嘉義市隬陀路327巷15號4樓", "agency": "嘉義市政府"}}, {"type": "Feature", "geometry": {"type": "Point", "coordinates": [120.4536725, 23.48101]}, "properties": {"category": "iTaiwan", "name": "ITWI000171嘉義市政府2樓", "address": "嘉義市中山路199號2樓", "agency": "嘉義市政府"}}, {"type": "Feature", "geometry": {"type": "Point", "coordinates": [120.453726, 23.48103]}, "properties": {"category": "iTaiwan", "name": "ITWI000172嘉義市政府7樓", "address": "嘉義市中山路199號7樓", "agency": "嘉義市政府"}}, {"type": "Feature", "geometry": {"type": "Point", "coordinates": [120.46264, 23.471484]}, "properties": {"category": "iTaiwan", "name": "ITWI000173嘉義市國民運動中心(服務台)", "address": "嘉義市彌陀路327巷15號1樓/服務台", "agency": "嘉義市政府"}}, {"type": "Feature", "geometry": {"type": "Point", "coordinates": [120.467813, 23.486788]}, "properties": {"category": "iTaiwan", "name": "ITWI000174嘉義市王田里集會所", "address": "嘉義市五福街119號", "agency": "嘉義市政府"}}, {"type": "Feature", "geometry": {"type": "Point", "coordinates": [120.467135, 23.482028]}, "properties": {"category": "iTaiwan", "name": "ITWI000178嘉義公園(兒童遊戲區)", "address": "嘉義市東區公園街42號", "agency": "嘉義市政府"}}, {"type": "Feature", "geometry": {"type": "Point", "coordinates": [120.4405453, 23.47722492]}, "properties": {"category": "iTaiwan", "name": "ITWI000179嘉義市立美術館", "address": "嘉義市廣寧街101號", "agency": "嘉義市政府"}}, {"type": "Feature", "geometry": {"type": "Point", "coordinates": [120.46355, 23.483898]}, "properties": {"category": "iTaiwan", "name": "ITWI000180嘉義公園(滑草場溜滑梯)", "address": "嘉義市東區啟明路264號", "agency": "嘉義市政府"}}, {"type": "Feature", "geometry": {"type": "Point", "coordinates": [120.4404007, 23.47675482]}, "properties": {"category": "iTaiwan", "name": "ITWI000181嘉義市立美術館B棟1樓", "address": "嘉義市西區廣寧街101號", "agency": "嘉義市政府"}}, {"type": "Feature", "geometry": {"type": "Point", "coordinates": [120.4407814, 23.47677671]}, "properties": {"category": "iTaiwan", "name": "ITWI000182嘉義市立美術館B棟3樓", "address": "嘉義市西區廣寧街101號", "agency": "嘉義市政府"}}, {"type": "Feature", "geometry": {"type": "Point", "coordinates": [120.4407889, 23.47735252]}, "properties": {"category": "iTaiwan", "name": "ITWI000183嘉義市立美術館C棟1樓", "address": "600嘉義市西區廣寧街101號", "agency": "嘉義市政府"}}, {"type": "Feature", "geometry": {"type": "Point", "coordinates": [120.4626, 23.48758]}, "properties": {"category": "iTaiwan", "name": "ITWI000185嘉義地檢署2樓觀護人室(二)前", "address": "嘉義市東區林森東路286號", "agency": "嘉義市政府"}}, {"type": "Feature", "geometry": {"type": "Point", "coordinates": [120.4508, 23.4873]}, "properties": {"category": "iTaiwan", "name": "ITWI000186嘉義製材所(木屋圍牆邊)", "address": "嘉義市林森西路4號", "agency": "嘉義市政府"}}, {"type": "Feature", "geometry": {"type": "Point", "coordinates": [120.43914, 23.47688]}, "properties": {"category": "iTaiwan", "name": "ITWI000189嘉義文化創意產業園區(S棟)", "address": "嘉義市西區中山路616號", "agency": "嘉義市政府"}}, {"type": "Feature", "geometry": {"type": "Point", "coordinates": [120.43846, 23.4762]}, "properties": {"category": "iTaiwan", "name": "ITWI000190嘉義文化創意產業園區(V棟)", "address": "嘉義市西區中山路616號", "agency": "嘉義市政府"}}, {"type": "Feature", "geometry": {"type": "Point", "coordinates": [120.4635, 23.4756]}, "properties": {"category": "iTaiwan", "name": "ITWI000191嘉義市長青綜合服務中心 2F", "address": "嘉義市東區公義路1號2F", "agency": "嘉義市政府"}}, {"type": "Feature", "geometry": {"type": "Point", "coordinates": [120.45036, 23.47378]}, "properties": {"category": "iTaiwan", "name": "ITWI000192嘉義市文化路商圈5", "address": "嘉義市垂楊路、文化路口公話亭", "agency": "嘉義市政府"}}, {"type": "Feature", "geometry": {"type": "Point", "coordinates": [120.4638, 23.4716]}, "properties": {"category": "iTaiwan", "name": "ITWI000193嘉義市彌陀路候車亭(嘉義高工對面)", "address": "嘉義市東區彌陀路295號前電信箱體", "agency": "嘉義市政府"}}, {"type": "Feature", "geometry": {"type": "Point", "coordinates": [120.451, 23.49948]}, "properties": {"category": "iTaiwan", "name": "ITWI000194嘉義市忠孝路候車亭(嘉基陸橋旁)", "address": "嘉義市東區忠孝路539號嘉基醫院門診大樓前電信箱體", "agency": "嘉義市政府"}}, {"type": "Feature", "geometry": {"type": "Point", "coordinates": [120.46113, 23.48237]}, "properties": {"category": "iTaiwan", "name": "ITWI000195嘉義市中山路商圈(新生路口)", "address": "嘉義市中山路、新生路口公話亭(人行道上)", "agency": "嘉義市政府"}}, {"type": "Feature", "geometry": {"type": "Point", "coordinates": [120.4659, 23.46905]}, "properties": {"category": "iTaiwan", "name": "ITWI000196嘉義市彌陀路候車亭(大同技術學院對面)", "address": "嘉義市東區彌陀路253號對面電信箱體(編號E1-3270)", "agency": "嘉義市政府"}}, {"type": "Feature", "geometry": {"type": "Point", "coordinates": [120.446, 23.48968]}, "properties": {"category": "iTaiwan", "name": "ITWI000197嘉義市北香湖公園1", "address": "嘉義市文化路439號旁公話亭", "agency": "嘉義市政府"}}, {"type": "Feature", "geometry": {"type": "Point", "coordinates": [120.43316, 23.4844]}, "properties": {"category": "iTaiwan", "name": "ITWI000198嘉義市婦女福利服務中心4F演講廳", "address": "嘉義市西區德安路6號", "agency": "嘉義市政府"}}, {"type": "Feature", "geometry": {"type": "Point", "coordinates": [120.464957, 23.481847]}, "properties": {"category": "iTaiwan", "name": "ITWI000199嘉義公園(KANO遊客中心)", "address": "嘉義市東區19鄰山仔頂269號", "agency": "嘉義市政府"}}, {"type": "Feature", "geometry": {"type": "Point", "coordinates": [120.450293, 23.486764]}, "properties": {"category": "iTaiwan", "name": "ITWI000201阿里山鐵路車庫園區(修理工廠)", "address": "嘉義市林森西路2號車庫園區修理工廠北側外牆", "agency": "嘉義市政府"}}, {"type": "Feature", "geometry": {"type": "Point", "coordinates": [120.447881, 23.479213]}, "properties": {"category": "iTaiwan", "name": "ITWI000202嘉義市西市場2樓(數位翻轉基地)", "address": "嘉義市西區國華街245號2樓", "agency": "嘉義市政府"}}, {"type": "Feature", "geometry": {"type": "Point", "coordinates": [120.448117, 23.479092]}, "properties": {"category": "iTaiwan", "name": "ITWI000203嘉義市西市場2樓(西市場自治會)", "address": "嘉義市西區國華街245號2樓", "agency": "嘉義市政府"}}, {"type": "Feature", "geometry": {"type": "Point", "coordinates": [120.455451, 23.4802636]}, "properties": {"category": "iTaiwan", "name": "ITWI000205古蹟東門派出所(公明路236號)", "address": "嘉義市東區公明路236號", "agency": "嘉義市政府"}}, {"type": "Feature", "geometry": {"type": "Point", "coordinates": [120.445557, 23.476398]}, "properties": {"category": "iTaiwan", "name": "ITWI000206嘉義市義昌公園", "address": "600嘉義市西區延平街370號", "agency": "嘉義市政府"}}, {"type": "Feature", "geometry": {"type": "Point", "coordinates": [120.457832, 23.481872]}, "properties": {"category": "iTaiwan", "name": "嘉義中山路郵局", "address": "600嘉義市東區中山路107號", "agency": "交通部"}}, {"type": "Feature", "geometry": {"type": "Point", "coordinates": [120.453573, 23.481406]}, "properties": {"category": "iTaiwan", "name": "財政部南區國稅局嘉義分局", "address": "600嘉義市東區中山路199號4樓", "agency": "財政部"}}, {"type": "Feature", "geometry": {"type": "Point", "coordinates": [120.449801, 23.48001]}, "properties": {"category": "iTaiwan", "name": "第一商業銀行嘉義分行", "address": "600嘉義市東區中山路307號", "agency": "財政部"}}, {"type": "Feature", "geometry": {"type": "Point", "coordinates": [120.449873, 23.479578]}, "properties": {"category": "iTaiwan", "name": "臺灣土地銀行嘉義分行", "address": "600嘉義市東區中山路309號", "agency": "財政部"}}, {"type": "Feature", "geometry": {"type": "Point", "coordinates": [120.4411382, 23.4791187]}, "properties": {"category": "iTaiwan", "name": "臺鐵局嘉義站售票大廳", "address": "600嘉義市東區中山路528號", "agency": "交通部"}}, {"type": "Feature", "geometry": {"type": "Point", "coordinates": [120.44052, 23.47995]}, "properties": {"category": "iTaiwan", "name": "臺鐵局嘉義站後站大廳", "address": "600嘉義市東區中山路528號", "agency": "交通部"}}, {"type": "Feature", "geometry": {"type": "Point", "coordinates": [120.458181, 23.482333]}, "properties": {"category": "iTaiwan", "name": "財政部國有財產署南區分署嘉義辦事處", "address": "600嘉義市東區中山路94號", "agency": "財政部"}}, {"type": "Feature", "geometry": {"type": "Point", "coordinates": [120.4578344, 23.4821478]}, "properties": {"category": "iTaiwan", "name": "行政執行署嘉義分署1樓等候區", "address": "600嘉義市東區中山路96號", "agency": "法務部"}}, {"type": "Feature", "geometry": {"type": "Point", "coordinates": [120.456044, 23.480121]}, "properties": {"category": "iTaiwan", "name": "嘉義東門郵局", "address": "600嘉義市東區中正路141號", "agency": "交通部"}}, {"type": "Feature", "geometry": {"type": "Point", "coordinates": [120.4530714, 23.5005117]}, "properties": {"category": "iTaiwan", "name": "臺鐵局嘉北站候車室", "address": "600嘉義市東區保健街110號", "agency": "交通部"}}, {"type": "Feature", "geometry": {"type": "Point", "coordinates": [120.455124, 23.501086]}, "properties": {"category": "iTaiwan", "name": "嘉義後湖郵局", "address": "600嘉義市東區保健街30-5號", "agency": "交通部"}}, {"type": "Feature", "geometry": {"type": "Point", "coordinates": [120.45354, 23.500399]}, "properties": {"category": "iTaiwan", "name": "交通部公路總局嘉義區監理所嘉義市監理站-考驗大樓", "address": "600嘉義市東區保健街89號", "agency": "交通部"}}, {"type": "Feature", "geometry": {"type": "Point", "coordinates": [120.452311, 23.50077]}, "properties": {"category": "iTaiwan", "name": "公路總局嘉義區監理所嘉義市監理站", "address": "600嘉義市東區保建街89號", "agency": "交通部"}}, {"type": "Feature", "geometry": {"type": "Point", "coordinates": [120.466503, 23.480914]}, "properties": {"category": "iTaiwan", "name": "國軍退除役官兵輔導委員會嘉義榮民服務處一樓大廳", "address": "600嘉義市東區公園街67號", "agency": "國軍退除役官兵輔導委員會"}}, {"type": "Feature", "geometry": {"type": "Point", "coordinates": [120.453581, 23.478884]}, "properties": {"category": "iTaiwan", "name": "內政部移民署嘉義市服務站(新)", "address": "600嘉義市東區吳鳳北路184號2樓", "agency": "內政部"}}, {"type": "Feature", "geometry": {"type": "Point", "coordinates": [120.453426, 23.478766]}, "properties": {"category": "iTaiwan", "name": "外交部領事事務局雲嘉南辦事處(大廳)", "address": "600嘉義市東區吳鳳北路184號2樓", "agency": "外交部"}}, {"type": "Feature", "geometry": {"type": "Point", "coordinates": [120.453281, 23.474972]}, "properties": {"category": "iTaiwan", "name": "臺中榮總嘉義分院附設門診部門診大樓1F大廳", "address": "600嘉義市東區吳鳳北路35巷4號", "agency": "國軍退除役官兵輔導委員會"}}, {"type": "Feature", "geometry": {"type": "Point", "coordinates": [120.451999, 23.484129]}, "properties": {"category": "iTaiwan", "name": "兆豐國際商銀嘉興分行", "address": "600嘉義市東區吳鳳北路379號", "agency": "財政部"}}, {"type": "Feature", "geometry": {"type": "Point", "coordinates": [120.454295, 23.471454]}, "properties": {"category": "iTaiwan", "name": "中油公司煉製研究所招待所", "address": "600嘉義市東區吳鳳南路91號", "agency": "經濟部"}}, {"type": "Feature", "geometry": {"type": "Point", "coordinates": [120.455123, 23.474034]}, "properties": {"category": "iTaiwan", "name": "台電公司嘉義區處服務中心營業廳", "address": "600嘉義市東區垂楊路223號", "agency": "經濟部"}}, {"type": "Feature", "geometry": {"type": "Point", "coordinates": [120.455436, 23.463632]}, "properties": {"category": "iTaiwan", "name": "行政院勞動部勞工保險局嘉義辦事處洽公櫃台", "address": "600嘉義市東區大業街2號", "agency": "勞動部"}}, {"type": "Feature", "geometry": {"type": "Point", "coordinates": [120.465218, 23.477684]}, "properties": {"category": "iTaiwan", "name": "嘉義縣公共汽車管理處", "address": "600嘉義市東區大雅路二段635號", "agency": "嘉義縣政府"}}, {"type": "Feature", "geometry": {"type": "Point", "coordinates": [120.457663, 23.481255]}, "properties": {"category": "iTaiwan", "name": "交通部公路總局第五區養護工程處", "address": "600嘉義市東區安和街209號", "agency": "交通部"}}, {"type": "Feature", "geometry": {"type": "Point", "coordinates": [120.462751, 23.474072]}, "properties": {"category": "iTaiwan", "name": "嘉義彌陀郵局", "address": "600嘉義市東區彌陀路268號", "agency": "交通部"}}, {"type": "Feature", "geometry": {"type": "Point", "coordinates": [120.452244, 23.497066]}, "properties": {"category": "iTaiwan", "name": "臺灣銀行嘉北分行", "address": "600嘉義市東區忠孝路602號", "agency": "財政部"}}, {"type": "Feature", "geometry": {"type": "Point", "coordinates": [120.450018, 23.477789]}, "properties": {"category": "iTaiwan", "name": "嘉義文化路郵局", "address": "600嘉義市東區文化路134號", "agency": "交通部"}}, {"type": "Feature", "geometry": {"type": "Point", "coordinates": [120.448972, 23.485412]}, "properties": {"category": "iTaiwan", "name": "臺灣嘉義地方法院嘉義簡易庭2F當事人休息區", "address": "600嘉義市東區文化路308-1號", "agency": "臺灣高等法院"}}, {"type": "Feature", "geometry": {"type": "Point", "coordinates": [120.46171, 23.487236]}, "properties": {"category": "iTaiwan", "name": "臺灣嘉義地方法院1F當事人休息區", "address": "600嘉義市東區林森東路282號", "agency": "臺灣高等法院"}}, {"type": "Feature", "geometry": {"type": "Point", "coordinates": [120.4628, 23.4879]}, "properties": {"category": "iTaiwan", "name": "臺灣嘉義地方法院檢察署為民服務中心", "address": "600嘉義市東區林森東路286號", "agency": "法務部"}}, {"type": "Feature", "geometry": {"type": "Point", "coordinates": [120.470592, 23.491945]}, "properties": {"category": "iTaiwan", "name": "嘉義林森郵局", "address": "600嘉義市東區林森東路488號", "agency": "交通部"}}, {"type": "Feature", "geometry": {"type": "Point", "coordinates": [120.453206, 23.485826]}, "properties": {"category": "iTaiwan", "name": "行政院農業委員會林務局嘉義林區管理處", "address": "600嘉義市東區林森西路1號", "agency": "行政院農業委員會"}}, {"type": "Feature", "geometry": {"type": "Point", "coordinates": [120.476836, 23.483912]}, "properties": {"category": "iTaiwan", "name": "自來水公司嘉義給水廠", "address": "600嘉義市東區民權東路46號", "agency": "經濟部"}}, {"type": "Feature", "geometry": {"type": "Point", "coordinates": [120.454547, 23.483195]}, "properties": {"category": "iTaiwan", "name": "嘉義忠孝郵局", "address": "600嘉義市東區民權路208-1號", "agency": "交通部"}}, {"type": "Feature", "geometry": {"type": "Point", "coordinates": [120.455276, 23.482989]}, "properties": {"category": "iTaiwan", "name": "自來水公司嘉義服務所", "address": "600嘉義市東區民權路293號", "agency": "經濟部"}}, {"type": "Feature", "geometry": {"type": "Point", "coordinates": [120.455276, 23.482989]}, "properties": {"category": "iTaiwan", "name": "自來水公司第五區管理處", "address": "600嘉義市東區民權路293號", "agency": "經濟部"}}, {"type": "Feature", "geometry": {"type": "Point", "coordinates": [120.450668, 23.482495]}, "properties": {"category": "iTaiwan", "name": "標準檢驗局臺南分局嘉義辦事處", "address": "600嘉義市東區民權路312號", "agency": "經濟部"}}, {"type": "Feature", "geometry": {"type": "Point", "coordinates": [120.460848, 23.484129]}, "properties": {"category": "iTaiwan", "name": "國防部嘉義福利站服務台", "address": "600嘉義市東區民權路50-1號", "agency": "國防部"}}, {"type": "Feature", "geometry": {"type": "Point", "coordinates": [120.454641, 23.469252]}, "properties": {"category": "iTaiwan", "name": "中油公司嘉義直銷中心", "address": "600嘉義市東區興業東路12號", "agency": "經濟部"}}, {"type": "Feature", "geometry": {"type": "Point", "coordinates": [120.454641, 23.469252]}, "properties": {"category": "iTaiwan", "name": "嘉義興業路郵局", "address": "600嘉義市東區興業東路12號", "agency": "交通部"}}, {"type": "Feature", "geometry": {"type": "Point", "coordinates": [120.455458, 23.469468]}, "properties": {"category": "iTaiwan", "name": "勞動部勞動力發展署雲嘉南分署嘉義就業中心", "address": "600嘉義市東區興業東路267號", "agency": "勞動部"}}, {"type": "Feature", "geometry": {"type": "Point", "coordinates": [120.454938, 23.470234]}, "properties": {"category": "iTaiwan", "name": "台灣中油股份有限公司溶劑化學品事業部", "address": "600嘉義市東區興業東路6號", "agency": "經濟部"}}, {"type": "Feature", "geometry": {"type": "Point", "coordinates": [120.460818, 23.458168]}, "properties": {"category": "iTaiwan", "name": "水利署第五河川局1樓服務台", "address": "600嘉義市東區親水路123號", "agency": "經濟部"}}, {"type": "Feature", "geometry": {"type": "Point", "coordinates": [120.483563, 23.463187]}, "properties": {"category": "iTaiwan", "name": "嘉義大學郵局", "address": "600嘉義市東區鹿寮里學府路300號", "agency": "交通部"}}, {"type": "Feature", "geometry": {"type": "Point", "coordinates": [120.422978, 23.467596]}, "properties": {"category": "iTaiwan", "name": "臺中榮總嘉義分院行政大樓3F", "address": "600嘉義市西區世賢路二段600號", "agency": "國軍退除役官兵輔導委員會"}}, {"type": "Feature", "geometry": {"type": "Point", "coordinates": [120.422971, 23.467802]}, "properties": {"category": "iTaiwan", "name": "臺中榮總嘉義分院門診部門診大樓1F大廳", "address": "600嘉義市西區世賢路二段600號1樓", "agency": "國軍退除役官兵輔導委員會"}}, {"type": "Feature", "geometry": {"type": "Point", "coordinates": [120.422971, 23.467802]}, "properties": {"category": "iTaiwan", "name": "臺中榮總嘉義分院門診部門診大樓2F候診區", "address": "600嘉義市西區世賢路二段600號2樓", "agency": "國軍退除役官兵輔導委員會"}}, {"type": "Feature", "geometry": {"type": "Point", "coordinates": [120.453281, 23.474972]}, "properties": {"category": "iTaiwan", "name": "臺中榮總嘉義分院健檢中心", "address": "600嘉義市西區世賢路二段601號", "agency": "國軍退除役官兵輔導委員會"}}, {"type": "Feature", "geometry": {"type": "Point", "coordinates": [120.448793, 23.479925]}, "properties": {"category": "iTaiwan", "name": "臺灣銀行嘉義分行", "address": "600嘉義市西區中山路306號", "agency": "財政部"}}, {"type": "Feature", "geometry": {"type": "Point", "coordinates": [120.447965, 23.479976]}, "properties": {"category": "iTaiwan", "name": "華南商業銀行嘉義分行", "address": "600嘉義市西區中山路320號", "agency": "財政部"}}, {"type": "Feature", "geometry": {"type": "Point", "coordinates": [120.441261, 23.479084]}, "properties": {"category": "iTaiwan", "name": "臺鐵局嘉義站候車室", "address": "600嘉義市西區中山路528號", "agency": "交通部"}}, {"type": "Feature", "geometry": {"type": "Point", "coordinates": [120.441261, 23.479084]}, "properties": {"category": "iTaiwan", "name": "臺鐵局嘉義站第1月台10車位置", "address": "600嘉義市西區中山路528號", "agency": "交通部"}}, {"type": "Feature", "geometry": {"type": "Point", "coordinates": [120.441261, 23.479084]}, "properties": {"category": "iTaiwan", "name": "臺鐵局嘉義站第1月台3車位置", "address": "600嘉義市西區中山路528號", "agency": "交通部"}}, {"type": "Feature", "geometry": {"type": "Point", "coordinates": [120.440838, 23.479336]}, "properties": {"category": "iTaiwan", "name": "臺鐵局嘉義站第2月台1車", "address": "600嘉義市西區中山路528號", "agency": "交通部"}}, {"type": "Feature", "geometry": {"type": "Point", "coordinates": [120.440838, 23.479336]}, "properties": {"category": "iTaiwan", "name": "臺鐵局嘉義站第2月台9車", "address": "600嘉義市西區中山路528號", "agency": "交通部"}}, {"type": "Feature", "geometry": {"type": "Point", "coordinates": [120.4434119, 23.478495]}, "properties": {"category": "iTaiwan", "name": "嘉義站前郵局", "address": "600嘉義市西區中正路647號", "agency": "交通部"}}, {"type": "Feature", "geometry": {"type": "Point", "coordinates": [120.42875, 23.472416]}, "properties": {"category": "iTaiwan", "name": "嘉義玉山郵局", "address": "600嘉義市西區中興路672號", "agency": "交通部"}}, {"type": "Feature", "geometry": {"type": "Point", "coordinates": [120.4422804, 23.4742694]}, "properties": {"category": "iTaiwan", "name": "行政院農業委員會農糧署南區分署-嘉義辦事處", "address": "600嘉義市西區仁愛路327號", "agency": "行政院農業委員會"}}, {"type": "Feature", "geometry": {"type": "Point", "coordinates": [120.44215, 23.474082]}, "properties": {"category": "iTaiwan", "name": "行政院農業委員會動植物防疫檢疫局臺中分局嘉義檢疫站", "address": "600嘉義市西區仁愛路327號2樓", "agency": "行政院農業委員會"}}, {"type": "Feature", "geometry": {"type": "Point", "coordinates": [120.434951, 23.492926]}, "properties": {"category": "iTaiwan", "name": "嘉義保安郵局", "address": "600嘉義市西區保安里保安一路241號", "agency": "交通部"}}, {"type": "Feature", "geometry": {"type": "Point", "coordinates": [120.42882, 23.481051]}, "properties": {"category": "iTaiwan", "name": "嘉義醫院-10樓左側陽光室", "address": "600嘉義市西區北港路312號", "agency": "衛生福利部"}}, {"type": "Feature", "geometry": {"type": "Point", "coordinates": [120.42882, 23.481051]}, "properties": {"category": "iTaiwan", "name": "嘉義醫院-1樓大廳口", "address": "600嘉義市西區北港路312號", "agency": "衛生福利部"}}, {"type": "Feature", "geometry": {"type": "Point", "coordinates": [120.438174, 23.485537]}, "properties": {"category": "iTaiwan", "name": "嘉義北社郵局", "address": "600嘉義市西區北興街245號", "agency": "交通部"}}, {"type": "Feature", "geometry": {"type": "Point", "coordinates": [120.43595, 23.464748]}, "properties": {"category": "iTaiwan", "name": "嘉義興嘉郵局", "address": "600嘉義市西區南京路409號", "agency": "交通部"}}, {"type": "Feature", "geometry": {"type": "Point", "coordinates": [120.444697, 23.473112]}, "properties": {"category": "iTaiwan", "name": "臺灣菸酒嘉義便利店", "address": "600嘉義市西區垂楊路427號1樓", "agency": "財政部"}}, {"type": "Feature", "geometry": {"type": "Point", "coordinates": [120.442699, 23.472182]}, "properties": {"category": "iTaiwan", "name": "嘉義成功街郵局", "address": "600嘉義市西區成功街112號", "agency": "交通部"}}, {"type": "Feature", "geometry": {"type": "Point", "coordinates": [120.448603, 23.483612]}, "properties": {"category": "iTaiwan", "name": "兆豐國際商銀嘉義分行", "address": "600嘉義市西區文化路259號", "agency": "財政部"}}, {"type": "Feature", "geometry": {"type": "Point", "coordinates": [120.446686, 23.488809]}, "properties": {"category": "iTaiwan", "name": "嘉義埤子頭郵局", "address": "600嘉義市西區文化路456號", "agency": "交通部"}}, {"type": "Feature", "geometry": {"type": "Point", "coordinates": [120.445231, 23.481678]}, "properties": {"category": "iTaiwan", "name": "嘉義民權路郵局", "address": "600嘉義市西區民權路467號", "agency": "交通部"}}, {"type": "Feature", "geometry": {"type": "Point", "coordinates": [120.4462113, 23.4669673]}, "properties": {"category": "iTaiwan", "name": "中油公司嘉義市服務中心", "address": "600嘉義市西區民生南路217號", "agency": "經濟部"}}, {"type": "Feature", "geometry": {"type": "Point", "coordinates": [120.4462113, 23.4669673]}, "properties": {"category": "iTaiwan", "name": "中油公司煉製研究所", "address": "600嘉義市西區民生南路217號", "agency": "經濟部"}}, {"type": "Feature", "geometry": {"type": "Point", "coordinates": [120.443389, 23.459104]}, "properties": {"category": "iTaiwan", "name": "嘉義湖內郵局", "address": "600嘉義市西區民生南路540號", "agency": "交通部"}}, {"type": "Feature", "geometry": {"type": "Point", "coordinates": [120.435086, 23.476971]}, "properties": {"category": "iTaiwan", "name": "嘉義福全郵局", "address": "600嘉義市西區福全里北港路55、57號", "agency": "交通部"}}, {"type": "Feature", "geometry": {"type": "Point", "coordinates": [120.441247, 23.485428]}, "properties": {"category": "iTaiwan", "name": "臺灣土地銀行嘉興分行", "address": "600嘉義市西區自由路28號", "agency": "財政部"}}, {"type": "Feature", "geometry": {"type": "Point", "coordinates": [120.4351552, 23.4675709]}, "properties": {"category": "iTaiwan", "name": "第一商業銀行(興嘉分行)", "address": "600嘉義市西區興業西路427號", "agency": "財政部"}}, {"type": "Feature", "geometry": {"type": "Point", "coordinates": [120.440822, 23.476584]}, "properties": {"category": "iTaiwan", "name": "華南商業銀行嘉南分行", "address": "600嘉義市西區蘭井街469號", "agency": "財政部"}}]}