{"type": "FeatureCollection", "features": [{"type": "Feature", "geometry": {"type": "Point", "coordinates": [120.46368308835703, 23.48321915490228]}, "properties": {"category": "公園綠地", "name": "嘉義公園", "type": "觀光、休憩、運動公園", "location": "原中山公園", "area": "23.21"}}, {"type": "Feature", "geometry": {"type": "Point", "coordinates": [120.44763007193342, 23.481494192133304]}, "properties": {"category": "公園綠地", "name": "中正公園", "type": "社區公園", "location": "民權路國華街口", "area": "1.33"}}, {"type": "Feature", "geometry": {"type": "Point", "coordinates": [120.45752207645182, 23.484722173804695]}, "properties": {"category": "公園綠地", "name": "長榮公園", "type": "社區公園", "location": "嘉義監獄西側", "area": "0.7"}}, {"type": "Feature", "geometry": {"type": "Point", "coordinates": [120.45614204715125, 23.478644122359647]}, "properties": {"category": "公園綠地", "name": "文昌公園", "type": "社區公園", "location": "華南商職西側", "area": "0.44"}}, {"type": "Feature", "geometry": {"type": "Point", "coordinates": [120.45195807840356, 23.47081020293488]}, "properties": {"category": "公園綠地", "name": "崇文公園", "type": "社區公園", "location": "嘉義商職東側", "area": "0.47"}}, {"type": "Feature", "geometry": {"type": "Point", "coordinates": [120.46004707457874, 23.46868514557069]}, "properties": {"category": "公園綠地", "name": "宣信公園", "type": "社區公園", "location": "宣信街芳安路口", "area": "0.4"}}, {"type": "Feature", "geometry": {"type": "Point", "coordinates": [120.46217204422277, 23.476479169330286]}, "properties": {"category": "公園綠地", "name": "228紀念公園", "type": "紀念公園", "location": "大雅路與啟明路路口處", "area": "0.71"}}, {"type": "Feature", "geometry": {"type": "Point", "coordinates": [120.43513104406091, 23.468218176225193]}, "properties": {"category": "公園綠地", "name": "興嘉公園", "type": "社區公園", "location": "興業路與南京路交叉處", "area": "1.13"}}, {"type": "Feature", "geometry": {"type": "Point", "coordinates": [120.45729709739786, 23.466225150473257]}, "properties": {"category": "公園綠地", "name": "南興公園", "type": "社區公園", "location": "兒8東側", "area": "1.08"}}, {"type": "Feature", "geometry": {"type": "Point", "coordinates": [120.4459230823042, 23.467069187094776]}, "properties": {"category": "公園綠地", "name": "民生公園", "type": "綠地公園", "location": "民生南路與興業路交叉處", "area": "2.63"}}, {"type": "Feature", "geometry": {"type": "Point", "coordinates": [120.45603605318705, 23.4702571313723]}, "properties": {"category": "公園綠地", "name": "南田公園", "type": "社區公園", "location": "公22、35", "area": "1.27"}}, {"type": "Feature", "geometry": {"type": "Point", "coordinates": [120.48863304743075, 23.482824142169534]}, "properties": {"category": "公園綠地", "name": "東洋公園", "type": "社區公園", "location": "原盧厝公園", "area": "0.15"}}, {"type": "Feature", "geometry": {"type": "Point", "coordinates": [120.44310213031628, 23.467342137106655]}, "properties": {"category": "公園綠地", "name": "仁愛兒童遊戲場", "type": "兒童遊戲場", "location": "文小19北側", "area": "0.24"}}, {"type": "Feature", "geometry": {"type": "Point", "coordinates": [120.45716507926197, 23.49743213245915]}, "properties": {"category": "公園綠地", "name": "頂庄公園", "type": "兒童遊戲場", "location": "監理所東南側", "area": "0.2"}}, {"type": "Feature", "geometry": {"type": "Point", "coordinates": [120.43322610469808, 23.47712412784606]}, "properties": {"category": "公園綠地", "name": "友忠公園", "type": "社區公園", "location": "北港路南側", "area": "1.49"}}, {"type": "Feature", "geometry": {"type": "Point", "coordinates": [120.4845370610891, 23.482628156829467]}, "properties": {"category": "公園綠地", "name": "文雅公園", "type": "社區公園", "location": "文雅街200巷東邊", "area": "0.17"}}, {"type": "Feature", "geometry": {"type": "Point", "coordinates": [120.45615106972835, 23.501838159322816]}, "properties": {"category": "公園綠地", "name": "後湖公園", "type": "社區公園", "location": "後湖工業區東南側", "area": "0.39"}}, {"type": "Feature", "geometry": {"type": "Point", "coordinates": [120.4507450648905, 23.4966631328252]}, "properties": {"category": "公園綠地", "name": "中庄公園", "type": "社區公園", "location": "台一線省道西南側", "area": "0.2"}}, {"type": "Feature", "geometry": {"type": "Point", "coordinates": [120.42521608246662, 23.49318115127437]}, "properties": {"category": "公園綠地", "name": "北社尾公園", "type": "社區公園", "location": "北園國小南側", "area": "0.76"}}, {"type": "Feature", "geometry": {"type": "Point", "coordinates": [120.44166903826434, 23.459950186111172]}, "properties": {"category": "公園綠地", "name": "光路公園", "type": "社區公園", "location": "中油鐵路/南側", "area": "0.18"}}, {"type": "Feature", "geometry": {"type": "Point", "coordinates": [120.43300309795234, 23.47575113558089]}, "properties": {"category": "公園綠地", "name": "番仔溝公園13號公園", "type": "社區公園", "location": "博愛路北側", "area": "0.8"}}, {"type": "Feature", "geometry": {"type": "Point", "coordinates": [120.43512112165496, 23.47478016396558]}, "properties": {"category": "公園綠地", "name": "番仔溝公園14號公園", "type": "社區公園", "location": "博愛路南側", "area": "2.05"}}, {"type": "Feature", "geometry": {"type": "Point", "coordinates": [120.45098111276944, 23.474769180770185]}, "properties": {"category": "公園綠地", "name": "文化公園", "type": "社區公園", "location": "嘉義女中北側", "area": "3.08"}}, {"type": "Feature", "geometry": {"type": "Point", "coordinates": [120.41641908883672, 23.46744215015163]}, "properties": {"category": "公園綠地", "name": "劉厝公園", "type": "社區公園", "location": "大富路大和街口", "area": "2.15"}}, {"type": "Feature", "geometry": {"type": "Point", "coordinates": [120.41831210554695, 23.464003148180304]}, "properties": {"category": "公園綠地", "name": "劉厝2號公園", "type": "社區公園", "location": "劉厝路大忠街口", "area": "1.1"}}, {"type": "Feature", "geometry": {"type": "Point", "coordinates": [120.41563209408032, 23.46072512569353]}, "properties": {"category": "公園綠地", "name": "劉厝3號公園", "type": "社區公園", "location": "大富路底東側", "area": "1.23"}}, {"type": "Feature", "geometry": {"type": "Point", "coordinates": [120.44152411389872, 23.455217178488713]}, "properties": {"category": "公園綠地", "name": "湖內兒童公園", "type": "社區公園", "location": "南京路南側", "area": "0.18"}}, {"type": "Feature", "geometry": {"type": "Point", "coordinates": [120.46836112459332, 23.469548165043793]}, "properties": {"category": "公園綠地", "name": "短竹公園", "type": "社區公園", "location": "光仁街南側", "area": "0.21"}}, {"type": "Feature", "geometry": {"type": "Point", "coordinates": [120.44612808152395, 23.4767251409367]}, "properties": {"category": "公園綠地", "name": "義昌公園", "type": "社區公園", "location": "民生北路以西", "area": "0.66"}}, {"type": "Feature", "geometry": {"type": "Point", "coordinates": [120.46489605914576, 23.46646920854519]}, "properties": {"category": "公園綠地", "name": "芳草公園", "type": "社區公園", "location": "彌陀路西側", "area": "0.21"}}, {"type": "Feature", "geometry": {"type": "Point", "coordinates": [120.44540613311065, 23.492429164377945]}, "properties": {"category": "公園綠地", "name": "北香湖公園", "type": "市鎮公園", "location": "博愛陸橋旁、文化路底", "area": "25.26"}}, {"type": "Feature", "geometry": {"type": "Point", "coordinates": [120.41468011785476, 23.46682620713496]}, "properties": {"category": "公園綠地", "name": "228國家紀念公園", "type": "紀念公園", "location": "大富路以西", "area": "6.1"}}, {"type": "Feature", "geometry": {"type": "Point", "coordinates": [120.47124105374952, 23.48412313461006]}, "properties": {"category": "公園綠地", "name": "嘉義都會森林公園", "type": "保護區", "location": "鄰近嘉義植物園", "area": "5.5"}}, {"type": "Feature", "geometry": {"type": "Point", "coordinates": [120.46834402893353, 23.46441366686264]}, "properties": {"category": "公園綠地", "name": "綠映水漾公園", "type": "社區公園", "location": "嘉義市動物保護教育園區旁", "area": "2.48"}}]}