{"type": "FeatureCollection", "features": [{"type": "Feature", "geometry": {"type": "Point", "coordinates": [120.44644, 23.47847]}, "properties": {"category": "寵物友善", "name": "韓雞Bar-嘉義形象店(正統韓式炸雞）", "type": "飲食類", "address": "嘉義市西區民生北路186號", "phone": "(05)2168599", "rules": "可落地", "service": "提供寵物飲水\n提供酒精或乾洗手\n提供協助清潔便溺物\n設有寵物友善公約並張貼於明顯處"}}, {"type": "Feature", "geometry": {"type": "Point", "coordinates": [120.4432, 23.48751]}, "properties": {"category": "寵物友善", "name": "朱家麻花捲老字號-12號（正宗老店）", "type": "飲食類", "address": "嘉義市友忠路788巷12號", "phone": "(05)2910973", "rules": "可落地\n(不可亂大小便喔)", "service": "提供酒精或乾洗手"}}, {"type": "Feature", "geometry": {"type": "Point", "coordinates": [120.4356598, 23.458228]}, "properties": {"category": "寵物友善", "name": "Manners Club", "type": "飲食類", "address": "嘉義市新民路377號", "phone": "(05)2360377", "rules": "可落地\n於提籠/推車內才可入內", "service": "寵物專用餐具\n寵物飲水\n協助照顧\n提供酒精或乾洗手\n協助清潔便溺物\n提供狗便袋\n設有寵物友善公約並張貼於明顯處"}}, {"type": "Feature", "geometry": {"type": "Point", "coordinates": [120.45386, 23.4779]}, "properties": {"category": "寵物友善", "name": "兩 顆蛋 Egg Egg Dessert", "type": "飲食類", "address": "嘉義市蘭井街108號", "phone": "(05)2227708", "rules": "可落地\n", "service": "寵物飲水\n寵物牽繩掛勾\n提供酒精或乾洗手"}}, {"type": "Feature", "geometry": {"type": "Point", "coordinates": [120.460489, 23.47756]}, "properties": {"category": "寵物友善", "name": "來來自然烘培", "type": "飲食類", "address": "嘉義市民國路93號", "phone": "(05)2788699", "rules": "於提籠/推車內才可入內", "service": "寵物飲水\n提供酒精或乾洗手\n設有寵物友善公約並張貼於明顯處"}}, {"type": "Feature", "geometry": {"type": "Point", "coordinates": [120.46066, 23.47642]}, "properties": {"category": "寵物友善", "name": "柴哥冰廊 x Miss Toast 熱壓吐司", "type": "飲食類", "address": "嘉義市民國路61號", "phone": "0982324064", "rules": "可落地\n一定要代禮貌帶", "service": "寵物飲水\n提供酒精或乾洗手\n設有寵物友善公約並張貼於明顯處"}}, {"type": "Feature", "geometry": {"type": "Point", "coordinates": [120.456594, 23.494475]}, "properties": {"category": "寵物友善", "name": "莊記火雞肉飯", "type": "飲食類", "address": "嘉義市新生路660-5號", "phone": "(05)2765331", "rules": "可落地\n", "service": "寵物飲水\n提供酒精或乾洗手\n設有寵物友善公約並張貼於明顯處"}}, {"type": "Feature", "geometry": {"type": "Point", "coordinates": [120.458242, 23.481942]}, "properties": {"category": "寵物友善", "name": "睦鄰咖啡morning cafe", "type": "飲食類", "address": "嘉義市中山路89號", "phone": "(05)2750106", "rules": "可落地", "service": "寵物飲水\n寵物奔跑空間\n提供酒精或乾洗手\n設有寵物友善公約並張貼於明顯處"}}, {"type": "Feature", "geometry": {"type": "Point", "coordinates": [120.46006, 23.48218]}, "properties": {"category": "寵物友善", "name": "喵咪文創咖啡館", "type": "飲食類", "address": "嘉義市中山路43號", "phone": "(05)2781236", "rules": "於提籠/推車內才能進入", "service": "寵物飲水\n提供酒精或乾洗手\n設有寵物友善公約並張貼於明顯處"}}, {"type": "Feature", "geometry": {"type": "Point", "coordinates": [120.448044, 23.485205]}, "properties": {"category": "寵物友善", "name": "貳樓餐廳 Second Floor Cafe 嘉義店", "type": "飲食類", "address": "嘉義市文化路299號1樓", "phone": "(05)2166222", "rules": "可落地\n", "service": "寵物飲水\n寵物餐\n提供酒精或乾洗手\n設有寵物友善公約並張貼於明顯處"}}, {"type": "Feature", "geometry": {"type": "Point", "coordinates": [120.434479, 23.470569]}, "properties": {"category": "寵物友善", "name": "米克斯寵物友善餐廳Mixed Pet Friendly Restaurant", "type": "飲食類", "address": "嘉義市青年街164號", "phone": "(05)2366588", "rules": "可落地\n寵物需固定在座位上(自備牽繩)", "service": "禮貌帶/生理褲(販售)\n寵物專用餐具\n寵物用品販售\n防汙墊\n提供酒精或乾洗手\n設有寵物友善公約並張貼於明顯處"}}, {"type": "Feature", "geometry": {"type": "Point", "coordinates": [120.443119, 23.47746]}, "properties": {"category": "寵物友善", "name": "Nonamelab", "type": "飲食類", "address": "嘉義市西門街127號", "phone": "(05)2280999", "rules": "可落地\n於提籠/推車內才可入內\n一定要代禮貌帶", "service": "寵物飲水\n提供酒精或乾洗手\n設有寵物友善公約並張貼於明顯處"}}, {"type": "Feature", "geometry": {"type": "Point", "coordinates": [120.450329, 23.48035]}, "properties": {"category": "寵物友善", "name": "綠食光 1929", "type": "飲食類", "address": "嘉義市中山路258號", "phone": "(05)2259191", "rules": "可落地", "service": "可落地(繫牽繩)\n於提籠/推車內才可入內(特殊寵物)"}}, {"type": "Feature", "geometry": {"type": "Point", "coordinates": [120.454967, 23.489139]}, "properties": {"category": "寵物友善", "name": "廢溫室Greenhouse café", "type": "飲食類", "address": "嘉義市忠孝路346巷18號", "phone": "0926052331", "rules": "可落地\n需用牽繩\n", "service": "寵物飲水\n寵物戶外奔跑空間\n提供酒精或乾洗手\n設有寵物友善公約並張貼於明顯處"}}, {"type": "Feature", "geometry": {"type": "Point", "coordinates": [120.45207, 23.49867]}, "properties": {"category": "寵物友善", "name": "東發養蜂場", "type": "飲食類", "address": "嘉義市義教街839號", "phone": "(05)2719608", "rules": "可落地\n", "service": "寵物飲水\n提供酒精或乾洗手\n設有寵物友善公約並張貼於明顯處"}}, {"type": "Feature", "geometry": {"type": "Point", "coordinates": [120.45649, 23.494138]}, "properties": {"category": "寵物友善", "name": "六年甲班(新生店)", "type": "飲食類", "address": "嘉義市新生路663-2號", "phone": "(05)2778877", "rules": "可落地\n一定要帶著禮貌帶\n", "service": "寵物飲水\n提供酒精或乾洗手\n設有寵物友善公約並張貼於明顯處"}}, {"type": "Feature", "geometry": {"type": "Point", "coordinates": [120.4659, 23.47997]}, "properties": {"category": "寵物友善", "name": "沐鮨日本料理", "type": "飲食類", "address": "嘉義市公園街139號", "phone": "(05)2716610", "rules": "於提籠/推車才可入內\n", "service": "寵物飲水\n提供酒精或乾洗手"}}, {"type": "Feature", "geometry": {"type": "Point", "coordinates": [120.44222, 23.476489]}, "properties": {"category": "寵物友善", "name": "舊時光新鮮事", "type": "飲食類", "address": "嘉義市仁愛路494號", "phone": "(05)2169909", "rules": "寵物可落地\n於提籠/推車才可入內\n", "service": "提供寵物飲水\n提供酒精或乾洗手\n設有寵物友善公約並張貼於明顯處"}}, {"type": "Feature", "geometry": {"type": "Point", "coordinates": [120.434441, 23.483725]}, "properties": {"category": "寵物友善", "name": "冠閣大飯店", "type": "住宿業", "address": "嘉義市忠順一街27號", "phone": "(05)2318111", "rules": "可落地", "service": "寵物專用餐具\n寵物飲水\n寵物餐\n寵物美容\n提供酒精或乾洗手\n協助清潔便溺物\n提供狗便袋\n設有寵物友善公約並張貼於明顯處"}}, {"type": "Feature", "geometry": {"type": "Point", "coordinates": [120.442089, 23.4755]}, "properties": {"category": "寵物友善", "name": "德爾芙快捷酒店De reve Express Hotel", "type": "住宿業", "address": "嘉義市仁愛路361號5-11樓", "phone": "(05)2161899", "rules": "於提籠/推車內才可入內", "service": "寵物專用餐具\n寵物飲水\n防汙墊\n提供酒精或乾洗手\n提供狗便袋"}}, {"type": "Feature", "geometry": {"type": "Point", "coordinates": [120.4459271, 23.477217]}, "properties": {"category": "寵物友善", "name": "小小逐月坊(little-moonlight)", "type": "住宿業", "address": "嘉義市國華街181巷14號", "phone": "(05)2168528", "rules": "可落地\n一定要用禮貌帶\n1.\t為防止貓咪跳躍翻牆而走失，有露天院子，如您攜帶貓咪前來，請一定要自行準備並攜帶寵物運輸籠，在屋內空間貓咪可落地，在露天院子必須將貓咪裝入寵物籠裡\n2.\t為確保環境衛生與避免傳染性疾病之發生，狗與貓允許與主人同一房，但寵物不能上床", "service": "禮貌帶/生理褲(租借)\n寵物專用餐具\n寵物床墊/防汙墊\n寵物奔跑空間\n寵物運輸籠(大型)\n提供寵物飲水\n提供酒精或乾洗手\n提供協助清潔便溺物\n提供狗便袋\n設有寵物友善公約並張貼於明顯處"}}, {"type": "Feature", "geometry": {"type": "Point", "coordinates": [120.44173, 23.47664]}, "properties": {"category": "寵物友善", "name": "安蘭居旅店", "type": "住宿業", "address": "嘉義市蘭井街465號14樓", "phone": "(05)2290102", "rules": "於提籠/推車才可入內\n寵物專用餐具\n", "service": "寵物飲水\n寵物運輸籠(小型)\n提供酒精或乾洗手\n設有寵物友善公約並張貼於明顯處"}}, {"type": "Feature", "geometry": {"type": "Point", "coordinates": [120.456894, 23.480073]}, "properties": {"category": "寵物友善", "name": "安娜與國王有限公司", "type": "住宿業", "address": "嘉義市和平路150號", "phone": "(05)2789591", "rules": "於提籠/推車才可入內", "service": "寵物飲水\n可攜帶寵物入住"}}, {"type": "Feature", "geometry": {"type": "Point", "coordinates": [120.449971, 23.50494]}, "properties": {"category": "寵物友善", "name": "新悦花園酒店", "type": "住宿業", "address": "嘉義市保順路69號", "phone": "(05)278666", "rules": "可落地\n需使用牽繩\n", "service": "寵物專用餐具\n寵物旅館\n提供貓砂\n協助清潔便溺物"}}, {"type": "Feature", "geometry": {"type": "Point", "coordinates": [120.42816, 23.48101]}, "properties": {"category": "寵物友善", "name": "東森寵物雲 嘉義西區店", "type": "生活類", "address": "嘉義市北港路313號", "phone": "(05)2330006", "rules": "可落地", "service": "寵物用品販售\n提供酒精或乾洗手\n設有寵物友善公約並張貼於明顯處"}}, {"type": "Feature", "geometry": {"type": "Point", "coordinates": [120.44817, 23.4842]}, "properties": {"category": "寵物友善", "name": "東森寵物雲 嘉義北區店", "type": "生活類", "address": "嘉義市林森西路186號", "phone": "(05)2251000", "rules": "可落地", "service": "寵物用品販售\n提供酒精或乾洗手\n設有寵物友善公約並張貼於明顯處"}}, {"type": "Feature", "geometry": {"type": "Point", "coordinates": [120.4338, 23.4814]}, "properties": {"category": "寵物友善", "name": "東森寵物雲 嘉義友愛店", "type": "生活類", "address": "嘉義市友愛路187號", "phone": "(05)2810999", "rules": "可落地", "service": "寵物用品販售\n提供酒精或乾洗手\n設有寵物友善公約並張貼於明顯處"}}, {"type": "Feature", "geometry": {"type": "Point", "coordinates": [120.4566934, 23.4549885]}, "properties": {"category": "寵物友善", "name": "東森寵物雲 嘉義後庒店", "type": "生活類", "address": "嘉義市吳鳳南路360號", "phone": "(05)2306999", "rules": "可落地", "service": "寵物用品販售\n提供酒精或乾洗手\n設有寵物友善公約並張貼於明顯處"}}, {"type": "Feature", "geometry": {"type": "Point", "coordinates": [120.43975, 23.46929]}, "properties": {"category": "寵物友善", "name": "幸福培菓寵物 嘉義店", "type": "生活類", "address": "嘉義市新民路723號", "phone": "(05)2841688", "rules": "可落地", "service": "禮貌帶/生理褲(販售)\n寵物用品販售\n寵物美容\n提供酒精或乾洗手\n協助清潔便溺物\n設有寵物友善公約並張貼於明顯處"}}, {"type": "Feature", "geometry": {"type": "Point", "coordinates": [120.44072, 23.4753]}, "properties": {"category": "寵物友善", "name": "皇品城眼鏡", "type": "生活類", "address": "嘉義市民族路794號", "phone": "(05)2161234", "rules": "可落地\n一定要代禮貌帶", "service": "寵物飲水\n寵物牽繩掛勾\n防汙墊\n提供酒精或乾洗手\n提供狗便袋\n設有寵物友善公約並張貼於明顯處"}}, {"type": "Feature", "geometry": {"type": "Point", "coordinates": [120.43264, 23.45963]}, "properties": {"category": "寵物友善", "name": "台灣大車隊", "type": "交通類", "address": "嘉義市重慶二街100號", "phone": "(05)2842797", "rules": "於提籠才可入內\n", "service": "親子接送服務\n提供酒精或乾洗手\n設有寵物友善公約並張貼於明顯處"}}, {"type": "Feature", "geometry": {"type": "Point", "coordinates": [120.43854, 23.502027]}, "properties": {"category": "寵物友善", "name": "愛木村地方文化館(愛木村休閒觀光工廠)", "type": "觀光類", "address": "嘉義市文化路909-3號", "phone": "(05)2322441", "rules": "可落地\n於提籠/推車內才可入內", "service": "寵物奔跑空間\n提供酒精或乾洗手\n設有寵物友善公約並張貼於明顯處"}}, {"type": "Feature", "geometry": {"type": "Point", "coordinates": [120.448414, 23.51244]}, "properties": {"category": "寵物友善", "name": "月桃故事館", "type": "觀光類", "address": "嘉義市保忠一街359號", "phone": "(05)2766399", "rules": "可落地", "service": "寵物飲水\n寵物奔跑空間\n提供酒精或乾洗手\n提供協助清潔便溺物"}}, {"type": "Feature", "geometry": {"type": "Point", "coordinates": [120.40181, 23.49104]}, "properties": {"category": "寵物友善", "name": "長圓食品-大福嘉義美食觀光工廠", "type": "觀光類", "address": "嘉義市北港路1296號", "phone": "(05)2387138", "rules": "可落地", "service": "寵物飲水\n寵物牽繩掛勾\n提供酒精或乾洗手\n協助清潔便溺物\n提供狗便袋\n設有寵物友善公約並張貼於明顯處"}}, {"type": "Feature", "geometry": {"type": "Point", "coordinates": [120.45124, 23.480499]}, "properties": {"category": "寵物友善", "name": "台灣圖書室", "type": "觀光類", "address": "嘉義市中山路255號", "phone": "(05)2228831", "rules": "可落地\n", "service": "寵物專用餐具\n寵物飲水\n寵物奔跑空間\n提供酒精或乾洗手\n提供協助清潔便溺物"}}, {"type": "Feature", "geometry": {"type": "Point", "coordinates": [120.452527, 23.496523]}, "properties": {"category": "寵物友善", "name": "耐斯廣場時尚百貨", "type": "觀光類", "address": "嘉義市忠孝路600號", "phone": "(05)2767888", "rules": "於提籠/推車內才可入內\n(餐廳及用餐區、宜得利、大創、寶雅除外)\n", "service": "寵物用品販售\n提供酒精或乾洗手\n設有寵物友善公約並張貼於明顯處"}}, {"type": "Feature", "geometry": {"type": "Point", "coordinates": [120.459432, 23.490952]}, "properties": {"category": "寵物友善", "name": "湘霖園企業社", "type": "觀光類", "address": "嘉義市博東路156號", "phone": "(05)2758052", "rules": "可落地\n", "service": "寵物飲水\n寵物奔跑空間\n提供酒精或乾洗手\n設有寵物友善公約並張貼於明顯處"}}, {"type": "Feature", "geometry": {"type": "Point", "coordinates": [120.43179, 23.459129]}, "properties": {"category": "寵物友善", "name": "咱的所在 紅瓦厝窯烤", "type": "觀光類", "address": "嘉義市重慶二街146號", "phone": "(05)2360998", "rules": "可落地\n", "service": "寵物飲水\n寵物奔跑空間\n提供酒精或乾洗手\n設有寵物友善公約並張貼於明顯處"}}, {"type": "Feature", "geometry": {"type": "Point", "coordinates": [120.4578, 23.49869]}, "properties": {"category": "寵物友善", "name": "嘉義市東區頂庄社區發展協會", "type": "觀光類", "address": "嘉義市義教街538號", "phone": "(05)2765298", "rules": "於提籠/推車內才可入內\n", "service": "寵物飲水\n提供酒精或乾洗手\n設有寵物友善公約並張貼於明顯處"}}, {"type": "Feature", "geometry": {"type": "Point", "coordinates": [120.402902, 23.480623]}, "properties": {"category": "寵物友善", "name": "嘉義市大溪社區發展協會", "type": "觀光類", "address": "嘉義市大溪路595號", "phone": "0935825623", "rules": "於提籠/推車內才可入內\n一定要帶著禮貌帶\n", "service": "寵物奔跑空間\n提供酒精或乾洗手\n設有寵物友善公約並張貼於明顯處"}}]}